LEMUR-2-STARLIGHT       
1 66783U 25276DY  26178.18237198  .00007114  00000+0  58797-3 0  9996
2 66783  97.5246 248.4795 0014693  99.5869 260.7015 14.99150450 31691
LEMUR-2-TARTIFLETTE     
1 66784U 25276DZ  26178.18071238  .00005956  00000+0  49314-3 0  9995
2 66784  97.5249 248.4855 0013666 106.6575 253.6150 14.99160657 31696
LEMUR-2-VUKASIN         
1 66785U 25276EA  26178.16574987  .00001760  00000+0  14448-3 0  9992
2 66785  97.5292 248.7921 0005487 101.2816 258.9025 15.00427471 31640
LEMUR-2-HOTSPUR-TOM     
1 66786U 25276EB  26178.17396369  .00006076  00000+0  50414-3 0  9998
2 66786  97.5243 248.4580 0014714  98.5783 261.7108 14.99060888 31623
LEMUR-2-MYRA            
1 66787U 25276EC  26178.13117676  .00007740  00000+0  61852-3 0  9994
2 66787  97.5221 248.6859 0017707 109.5102 250.8036 15.00380419 31700
LEMUR-2 FIKRETDENGIZ    
1 67363U 26004A   26177.94985150  .00004701  00000+0  51250-3 0  9998
2 67363  97.8013 176.3578 0010591 105.6843 254.5543 14.88392743 24738
TWILIGHT-1 OBJECT B     
1 67364U 26004B   26177.97848771  .00001850  00000+0  20865-3 0  9999
2 67364  97.8063 176.3969 0010283  96.9844 263.2542 14.87734551 24742
LEMUR-2-MARIO-SOUSA     
1 67365U 26004C   26177.99942852  .00004917  00000+0  53325-3 0  9991
2 67365  97.7984 176.4023 0010144 106.5377 253.6955 14.88587917 24756
LEMUR-2-SONNENBLUME     
1 67367U 26004E   26177.93197524  .00003300  00000+0  36194-3 0  9995
2 67367  97.7984 176.3166 0009637 108.0943 252.1324 14.88363917 24741
LEMUR-2-WOBLER          
1 67368U 26004F   26177.99132272  .00004005  00000+0  43560-3 0  9999
2 67368  97.8036 176.5072 0009961  99.1871 261.0473 14.88579379 24755
LEMUR-2-GRAM-E-SUE      
1 67370U 26004H   26177.98233825  .00002318  00000+0  25515-3 0  9992
2 67370  97.7972 176.3820 0008723 109.1241 251.0921 14.88511668 24757
LEMUR-2-KATIE           
1 67387U 26004AA  26177.48914545  .00003625  00000+0  38064-3 0  9995
2 67387  97.8033 176.3860 0004737  74.1849 285.9891 14.90102051 24694
LEMUR-2-HCS-BAZUS       
1 67388U 26004AB  26177.95801713  .00005833  00000+0  60786-3 0  9999
2 67388  97.8021 176.8292 0004220  71.9591 288.2087 14.90161977 24765
